{
  "norad_id": 40086,
  "name": "ORBCOMM FM109",
  "history": [
    {
      "epoch": "2026-04-13T04:05:31.946496Z",
      "apogee_km": 698.8037097978186,
      "perigee_km": 695.4552691790032,
      "latitude_deg": 4.4905625888449844e-05,
      "longitude_deg": 136.1139010884431,
      "height_km": 696.8571865660346,
      "semi_major_axis_km": 7075.26648948841,
      "eccentricity": 0.00023663,
      "inclination_deg": 47.0044,
      "raan_deg": 38.8621,
      "arg_perigee_deg": 287.0276,
      "mean_anomaly_deg": 73.0351,
      "mean_motion_rev_day": 14.58775829
    },
    {
      "epoch": "2026-04-14T04:44:55.993056Z",
      "apogee_km": 698.7782010263281,
      "perigee_km": 695.475326396152,
      "latitude_deg": 6.737442867280384e-06,
      "longitude_deg": 120.39445863091433,
      "height_km": 696.7697965622212,
      "semi_major_axis_km": 7075.263763711239,
      "eccentricity": 0.00023341,
      "inclination_deg": 47.0045,
      "raan_deg": 34.0055,
      "arg_perigee_deg": 290.3722,
      "mean_anomaly_deg": 69.6913,
      "mean_motion_rev_day": 14.58776672
    },
    {
      "epoch": "2026-04-15T11:58:50.378016Z",
      "apogee_km": 698.741133769282,
      "perigee_km": 695.5057586724333,
      "latitude_deg": -4.719684038425262e-05,
      "longitude_deg": 4.483363459305546,
      "height_km": 696.6647438527738,
      "semi_major_axis_km": 7075.260446220857,
      "eccentricity": 0.00022864,
      "inclination_deg": 47.0046,
      "raan_deg": 27.8537,
      "arg_perigee_deg": 294.7229,
      "mean_anomaly_deg": 65.3418,
      "mean_motion_rev_day": 14.58777698
    },
    {
      "epoch": "2026-04-16T04:25:06.360096Z",
      "apogee_km": 698.7188084672443,
      "perigee_km": 695.5236218572772,
      "latitude_deg": -2.667220100278945e-08,
      "longitude_deg": 114.0040412121824,
      "height_km": 696.6146496327752,
      "semi_major_axis_km": 7075.258215162261,
      "eccentricity": 0.0002258,
      "inclination_deg": 47.0047,
      "raan_deg": 24.616,
      "arg_perigee_deg": 296.9636,
      "mean_anomaly_deg": 63.1019,
      "mean_motion_rev_day": 14.58778388
    },
    {
      "epoch": "2026-04-17T16:34:53.419584Z",
      "apogee_km": 698.6767223630695,
      "perigee_km": 695.5572428821315,
      "latitude_deg": -1.1648377329448299e-05,
      "longitude_deg": -77.05031302023752,
      "height_km": 696.5102803053439,
      "semi_major_axis_km": 7075.2539826226,
      "eccentricity": 0.00022045,
      "inclination_deg": 47.0048,
      "raan_deg": 17.4929,
      "arg_perigee_deg": 301.9088,
      "mean_anomaly_deg": 58.1583,
      "mean_motion_rev_day": 14.58779697
    }
  ]
}